# From MPEC 2022-D36
117P/Helin-Roman-Alu,e,8.7038,58.8411,222.9246,4.082969,0.1194648,0.25552404,345.1032,03/05.0/2022,2000,g  2.5,8.0
# From MPEC 2021-TD0
118P/Shoemaker-Levy,e,10.0953,142.0952,314.7799,3.349158,0.1608054,0.45374873,317.4880,03/05.0/2022,2000,g 12.0,4.0
# From MPEC 2022-CN4
119P/Parker-Hartley,e,7.3932,104.5774,321.9925,3.806604,0.1327081,0.38842211,338.7898,03/05.0/2022,2000,g  3.5,8.0
# From MPEC 2022-CN4
120P/Mueller,e,8.4899,358.6719,36.6019,3.963192,0.1249213,0.37471097,37.6903,03/05.0/2022,2000,g 12.0,4.0
# From MPEC 2021-Y10
121P/Shoemaker-Holt,e,20.1643,94.1176,11.5116,4.583715,0.1004333,0.18594931,311.8069,03/05.0/2022,2000,g  6.5,8.0
# From MPC 75718
122P/de Vico,e,85.2095,79.6022,12.9975,17.62430,0.0133210,0.96227105,128.8703,03/05.0/2022,2000,g  7.5,5.2
# From MPEC 2021-F20
123P/West-Hartley,e,15.2838,45.9874,104.0768,3.877916,0.1290644,0.44539331,145.3184,03/05.0/2022,2000,g 12.2,4.0
# From MPEC 2021-F20
124P/Mrkos,e,31.6508,0.1622,184.5008,3.332086,0.1620428,0.50195720,109.7025,03/05.0/2022,2000,g 15.2,4.0
# From MPEC 2015-M77
125P/Spacewatch,e,9.9866,153.1470,87.2246,3.126770,0.1782625,0.51232441,229.2797,03/05.0/2022,2000,g  9.0,4.0
# From MPC 66205
126P/IRAS,e,45.8755,357.8709,356.5598,5.636958,0.0736439,0.69638342,324.1134,03/05.0/2022,2000,g  9.0,4.0
# From MPC 84321
127P/Holt-Olmstead,e,14.2983,13.6091,6.3448,3.455085,0.1534673,0.36012846,335.6534,03/05.0/2022,2000,g 11.0,6.0
# From MPC 89014
128P/Shoemaker-Holt,e,4.3691,214.3094,210.2669,4.490443,0.1035787,0.32124585,194.7468,03/05.0/2022,2000,g  8.5,4.0
# From MPEC 2022-D36
129P/Shoemaker-Levy,e,3.4422,184.8704,307.5745,4.285859,0.1110829,0.08438572,329.8841,03/05.0/2022,2000,g 12.8,4.0
# From MPC 78188
130P/McNaught-Hughes,e,6.0624,70.2034,246.0579,3.383601,0.1583563,0.46130436,237.8179,03/05.0/2022,2000,g 10.0,6.0
# From MPC102101
131P/Mueller,e,7.3582,214.1480,179.0338,3.679839,0.1396242,0.34429907,158.4957,03/05.0/2022,2000,g 11.0,4.0
# From MPEC 2022-D36
132P/Helin-Roman-Alu,e,5.3826,173.9973,216.3528,3.885582,0.1286826,0.56459608,14.3970,03/05.0/2022,2000,g 11.0,6.0
# From MPC 94676
133P/Elst-Pizarro,e,1.3895,160.0994,131.8810,3.165397,0.1750095,0.15665762,220.5436,03/05.0/2022,2000,g 15.4,2.0
# From MPC 89012
134P/Kowal-Vavrova,e,4.3367,202.0612,18.8788,6.262464,0.0628907,0.58546568,179.2192,03/05.0/2022,2000,g 11.5,4.0
# From MPEC 2021-F20
135P/Shoemaker-Levy,e,6.0630,213.0244,22.3213,3.801429,0.1329792,0.29497646,355.5662,03/05.0/2022,2000,g  7.0,8.0
# From MPEC 2020-W26
136P/Mueller,e,9.4243,137.4450,224.9746,4.191598,0.1148510,0.29315014,241.2172,03/05.0/2022,2000,g 11.0,4.0
# From MPEC 2021-N06
137P/Shoemaker-Levy,e,4.8553,232.9934,141.0832,4.520948,0.1025321,0.57373796,120.6628,03/05.0/2022,2000,g 11.0,4.0
# From MPEC 2016-U66
138P/Shoemaker-Levy,e,10.0904,309.3165,95.5458,3.621321,0.1430222,0.53090204,148.2786,03/05.0/2022,2000,g 15.0,6.0
# From MPEC 2020-HN5
139P/Vaisala-Oterma,e,2.3351,242.1525,165.7188,4.520781,0.1025378,0.24729554,158.4857,03/05.0/2022,2000,g  9.5,4.0
# From MPEC 2015-E14
140P/Bowell-Skiff,e,3.8408,343.2432,172.8140,6.423474,0.0605409,0.69222614,145.5856,03/05.0/2022,2000,g 11.5,6.0
# From MPEC 2021-AJ0
141P/Machholz,e,13.9474,241.8237,153.5662,3.057544,0.1843508,0.73586524,81.7894,03/05.0/2022,2000,g 14.7,4.0
# From MPEC 2021-Y10
142P/Ge-Wang,e,12.2515,175.9335,173.9689,4.998656,0.0881910,0.49721927,26.1326,03/05.0/2022,2000,g  8.5,6.0
# From MPEC 2021-W31
143P/Kowal-Mrkos,e,4.7022,245.1454,320.3351,4.278494,0.1113699,0.41142787,155.9330,03/05.0/2022,2000,g 13.5,2.0
# From MPC104795
144P/Kushida,e,3.9323,243.0964,216.3447,3.823978,0.1318047,0.63540241,268.8339,03/05.0/2022,2000,g  8.5,8.0
# From MPC108598
145P/Shoemaker-Levy,e,11.2772,26.7915,10.2437,4.137302,0.1171192,0.54190478,192.6416,03/05.0/2022,2000,g 13.5,4.0
# From MPC100284
146P/Shoemaker-LINEAR,e,23.1078,53.3830,316.9812,4.031077,0.1217790,0.64730966,252.2923,03/05.0/2022,2000,g 15.0,4.0
# From MPC 75720
147P/Kushida-Muramatsu,e,2.3130,92.3763,348.3954,4.029842,0.1218350,0.22185231,281.8631,03/05.0/2022,2000,g 14.0,4.0
# From MPEC 2022-CN4
148P/Anderson-LINEAR,e,3.6580,89.2116,8.0261,3.617446,0.1432521,0.54976609,345.5782,03/05.0/2022,2000,g 16.0,2.0
# From MPC 75720
149P/Mueller,e,34.5500,144.1611,31.1460,4.129750,0.1174407,0.32392899,152.4419,03/05.0/2022,2000,g  8.0,8.0
# From MPEC 2021-W31
150P/LONEOS,e,18.5072,272.2936,245.6502,3.878524,0.1290340,0.54795434,264.6644,03/05.0/2022,2000,g 13.5,4.0
# From MPEC 2015-Q71
151P/Helin,e,4.7286,143.1573,216.0719,5.763170,0.0712380,0.57373915,166.4082,03/05.0/2022,2000,g 10.0,6.0
# From MPEC 2021-F20
152P/Helin-Lawrence,e,9.8805,91.8582,163.9481,4.476385,0.1040670,0.30860749,5.2342,03/05.0/2022,2000,g 12.6,4.0
# From MPC 46101
153P/Ikeya-Zhang,e,27.9517,93.2806,34.9372,50.50209,0.0027462,0.98966211,0.0000,03/03.8641/2002,2000,g  9.0,4.0
# From MPC 87068
154P/Brewington,e,17.6331,343.0396,47.8607,4.801566,0.0936763,0.67598514,282.0834,03/05.0/2022,2000,g  2.5,12.0
# From MPEC 2021-F20
155P/Shoemaker,e,6.3979,97.1835,14.5900,6.573599,0.0584789,0.72624429,49.1872,03/05.0/2022,2000,g 13.8,4.0
# From MPEC 2022-D36
156P/Russell-LINEAR,e,17.2647,35.3524,0.4533,3.461615,0.1530333,0.61496823,72.2401,03/05.0/2022,2000,g 15.5,2.0
# From MPEC 2021-W31
157P/Tritton,e,12.4213,287.5629,155.0280,3.546106,0.1475966,0.55670255,332.1330,03/05.0/2022,2000,g 10.0,4.0
# From MPEC 2021-Y10
158P/Kowal-LINEAR,e,7.9001,135.3263,177.4281,5.133409,0.0847413,0.06462827,20.6254,03/05.0/2022,2000,g  9.0,4.0
# From MPEC 2021-N06
159P/LONEOS,e,23.4725,54.9625,4.5608,5.853239,0.0696001,0.38208354,96.2340,03/05.0/2022,2000,g 10.0,4.0
# From MPEC 2021-J28
160P/LINEAR,e,15.6165,333.3598,12.7404,3.775562,0.1343481,0.52628823,110.6312,03/05.0/2022,2000,g 15.5,2.0
# From MPC 75721
161P/Hartley-IRAS,e,95.7978,1.5733,46.9827,7.721672,0.0459343,0.83506660,280.5511,03/05.0/2022,2000,g  8.5,6.0
# From MPEC 2022-CN4
162P/SidingSpring,e,27.5576,30.8967,357.1628,3.091713,0.1813031,0.58303997,81.9708,03/05.0/2022,2000,g 12.0,4.0
# From MPEC 2021-S45
163P/NEAT,e,12.7107,102.0773,349.5771,3.766328,0.1348425,0.45208345,127.1475,03/05.0/2022,2000,g 14.5,4.0
# From MPEC 2021-F20
164P/Christensen,e,16.2611,88.2775,325.8403,3.655752,0.1410064,0.54045465,193.6307,03/05.0/2022,2000,g 11.0,4.0
# From MPC 75721
165P/LINEAR,e,15.8947,0.8642,125.9051,17.86195,0.0130560,0.61546992,103.9858,03/05.0/2022,2000,g 11.5,2.0
# From MPC 75722
166P/NEAT,e,15.3757,64.4014,321.5203,13.81573,0.0191930,0.38413045,138.6703,03/05.0/2022,2000,g  5.5,4.0
# From MPC 75722
167P/CINEOS,e,19.1144,295.6878,344.6745,16.23204,0.0150711,0.27119312,114.5854,03/05.0/2022,2000,g  9.5,2.0
# From MPC102101
168P/Hergenrother,e,21.6242,355.4517,15.0079,3.582408,0.1453589,0.62109296,136.9846,03/05.0/2022,2000,g 15.5,4.0
# From MPEC 2021-N06
169P/NEAT,e,11.2989,176.1076,218.0490,2.601496,0.2348926,0.76828817,330.2422,03/05.0/2022,2000,g 16.0,2.0
# From MPEC 2021-O56
170P/Christensen,e,10.1251,142.9221,225.6043,4.200339,0.1144926,0.30404599,312.8309,03/05.0/2022,2000,g 12.0,4.0
# From MPC102102
171P/Spahr,e,21.9381,101.6907,347.0568,3.554683,0.1470628,0.50175397,168.6502,03/05.0/2022,2000,g 13.5,4.0
# From MPEC 2022-C56
172P/Yeung,e,11.2264,30.8838,209.3741,4.214721,0.1139071,0.20500130,207.2854,03/05.0/2022,2000,g 13.0,4.0
# From MPEC 2022-D36
173P/Mueller,e,16.4919,100.3984,29.1714,5.707173,0.0722891,0.26109707,5.6652,03/05.0/2022,2000,g  7.5,4.0
# From MPC 92985
174P/Echeclus,e,4.3436,173.2000,163.2297,10.72996,0.0280419,0.45737077,70.2406,03/05.0/2022,2000,g  9.4,2.0
# From MPC114608
175P/Hergenrother,e,5.4834,119.7170,64.2238,3.535582,0.1482561,0.42639181,129.3996,03/05.0/2022,2000,g 14.0,4.0
# From MPC 89015
176P/LINEAR,e,0.2343,346.0362,34.5958,3.197144,0.1724094,0.19324885,314.7650,03/05.0/2022,2000,g 15.1,2.0
# From MPEC 2020-L06
177P/Barnard,e,31.2133,272.1166,60.3803,24.45381,0.0081505,0.95531167,46.1326,03/05.0/2022,2000,g 15.0,4.0
# From MPEC 2021-F20
178P/Hug-Bell,e,11.0876,102.8620,297.8068,3.632444,0.1423658,0.48222869,84.8846,03/05.0/2022,2000,g 14.6,4.0
# From MPEC 2022-C56
179P/Jedicke,e,19.8980,115.5143,296.9001,5.932343,0.0682126,0.30587933,354.1219,03/05.0/2022,2000,g  2.5,8.0
# From MPC100284
180P/NEAT,e,16.8635,84.5718,94.7388,3.864634,0.1297303,0.35306294,295.8507,03/05.0/2022,2000,g 11.0,4.0
# From MPC 89012
181P/Shoemaker-Levy,e,17.4861,35.4035,336.2318,3.873454,0.1292875,0.70056742,7.1432,03/05.0/2022,2000,g 11.5,4.0
# From MPEC 2014-J10
182P/LONEOS,e,16.2268,72.4596,54.2355,2.950535,0.1944701,0.66319530,346.7285,03/05.0/2022,2000,g 18.0,4.0
# From MPEC 2021-S45
183P/Korlevic-Juric,e,18.9707,4.0566,168.2182,4.579507,0.1005718,0.12733850,156.6746,03/05.0/2022,2000,g 12.5,2.0
# From MPEC 2020-W26
184P/Lovas,e,4.5735,173.2447,186.4970,3.795444,0.1332938,0.55105117,65.9434,03/05.0/2022,2000,g 13.5,4.0
# From MPC109593
185P/Petriew,e,14.0119,214.1063,181.8775,3.098421,0.1807147,0.69951123,270.5511,03/05.0/2022,2000,g 15.0,4.0
# From MPEC 2021-W31
186P/Garradd,e,28.7814,326.5671,271.5826,4.877100,0.0915085,0.12266426,104.3070,03/05.0/2022,2000,g  7.5,4.0
# From MPEC 2020-SI8
187P/LINEAR,e,13.6344,109.9090,131.6281,4.567475,0.1009694,0.15207424,140.5234,03/05.0/2022,2000,g  9.0,4.0
# From MPC106349
188P/LINEAR-Mueller,e,10.5260,358.9662,26.5771,4.372668,0.1077915,0.41633618,198.3324,03/05.0/2022,2000,g 11.5,4.0
# From MPC106349
189P/NEAT,e,20.0682,281.7194,16.3180,2.945812,0.1949380,0.58870388,325.5280,03/05.0/2022,2000,g 19.0,4.0
# From MPEC 2020-K19
190P/Mueller,e,2.1741,335.5679,50.3153,4.232607,0.1131858,0.52184057,243.9661,03/05.0/2022,2000,g 13.0,4.0
# From MPEC 2022-C56
191P/McNaught,e,8.8419,98.2326,284.0513,3.635722,0.1421733,0.38594313,49.7269,03/05.0/2022,2000,g 13.0,4.0
# From MPC 75724
192P/Shoemaker-Levy,e,24.5733,51.6125,313.0074,6.473164,0.0598452,0.77340691,311.4450,03/05.0/2022,2000,g 15.0,4.0
# From MPEC 2022-CN4
193P/LINEAR-NEAT,e,10.6885,335.1738,8.0766,3.576671,0.1457088,0.39386639,27.9489,03/05.0/2022,2000,g 14.0,4.0
